CCSDS_OMM_VERS = 2.0
CREATION_DATE  = 
ORIGINATOR     = 

OBJECT_NAME    = STARLINK-36634
OBJECT_ID      = 2026-018E
CENTER_NAME    = EARTH
REF_FRAME      = TEME
TIME_SYSTEM    = UTC
MEAN_ELEMENT_THEORY = SGP/SGP4

EPOCH          = 2026-02-24T10:34:06.205440
MEAN_MOTION    = 15.75287381
ECCENTRICITY   = .0002235
INCLINATION    = 97.2840
RA_OF_ASC_NODE = 120.6194
ARG_OF_PERICENTER = 98.7161
MEAN_ANOMALY   = 261.4357

EPHEMERIS_TYPE = 0
CLASSIFICATION_TYPE = U
NORAD_CAT_ID   = 67593
ELEMENT_SET_NO = 999
REV_AT_EPOCH   = 522
BSTAR          = .21716E-2
MEAN_MOTION_DOT = .338368E-2
MEAN_MOTION_DDOT = 0

CCSDS_OMM_VERS = 2.0
CREATION_DATE  = 
ORIGINATOR     = 

OBJECT_NAME    = STARLINK-36638
OBJECT_ID      = 2026-018F
CENTER_NAME    = EARTH
REF_FRAME      = TEME
TIME_SYSTEM    = UTC
MEAN_ELEMENT_THEORY = SGP/SGP4

EPOCH          = 2026-02-24T11:42:42.793056
MEAN_MOTION    = 15.80908908
ECCENTRICITY   = .0000954
INCLINATION    = 97.2852
RA_OF_ASC_NODE = 120.7093
ARG_OF_PERICENTER = 66.9827
MEAN_ANOMALY   = 293.1541

EPHEMERIS_TYPE = 0
CLASSIFICATION_TYPE = U
NORAD_CAT_ID   = 67594
ELEMENT_SET_NO = 999
REV_AT_EPOCH   = 523
BSTAR          = .13527E-2
MEAN_MOTION_DOT = .268226E-2
MEAN_MOTION_DDOT = 0

CCSDS_OMM_VERS = 2.0
CREATION_DATE  = 
ORIGINATOR     = 

OBJECT_NAME    = STARLINK-36628
OBJECT_ID      = 2026-018G
CENTER_NAME    = EARTH
REF_FRAME      = TEME
TIME_SYSTEM    = UTC
MEAN_ELEMENT_THEORY = SGP/SGP4

EPOCH          = 2026-02-24T12:30:59.778144
MEAN_MOTION    = 15.75291893
ECCENTRICITY   = .0001752
INCLINATION    = 97.2849
RA_OF_ASC_NODE = 120.6613
ARG_OF_PERICENTER = 45.0076
MEAN_ANOMALY   = 315.1331

EPHEMERIS_TYPE = 0
CLASSIFICATION_TYPE = U
NORAD_CAT_ID   = 67595
ELEMENT_SET_NO = 999
REV_AT_EPOCH   = 523
BSTAR          = .19588E-2
MEAN_MOTION_DOT = .304023E-2
MEAN_MOTION_DDOT = 0

CCSDS_OMM_VERS = 2.0
CREATION_DATE  = 
ORIGINATOR     = 

OBJECT_NAME    = STARLINK-36629
OBJECT_ID      = 2026-018H
CENTER_NAME    = EARTH
REF_FRAME      = TEME
TIME_SYSTEM    = UTC
MEAN_ELEMENT_THEORY = SGP/SGP4

EPOCH          = 2026-02-24T11:10:41.407392
MEAN_MOTION    = 15.75260083
ECCENTRICITY   = .0000615
INCLINATION    = 97.2837
RA_OF_ASC_NODE = 120.5830
ARG_OF_PERICENTER = 105.1518
MEAN_ANOMALY   = 254.9815

EPHEMERIS_TYPE = 0
CLASSIFICATION_TYPE = U
NORAD_CAT_ID   = 67596
ELEMENT_SET_NO = 999
REV_AT_EPOCH   = 522
BSTAR          = .16216E-2
MEAN_MOTION_DOT = .249705E-2
MEAN_MOTION_DDOT = 0

CCSDS_OMM_VERS = 2.0
CREATION_DATE  = 
ORIGINATOR     = 

OBJECT_NAME    = STARLINK-36384
OBJECT_ID      = 2026-018J
CENTER_NAME    = EARTH
REF_FRAME      = TEME
TIME_SYSTEM    = UTC
MEAN_ELEMENT_THEORY = SGP/SGP4

EPOCH          = 2026-02-24T12:00:01.999296
MEAN_MOTION    = 15.75200724
ECCENTRICITY   = .0001264
INCLINATION    = 97.2853
RA_OF_ASC_NODE = 120.7169
ARG_OF_PERICENTER = 86.5510
MEAN_ANOMALY   = 333.7532

EPHEMERIS_TYPE = 0
CLASSIFICATION_TYPE = U
NORAD_CAT_ID   = 67597
ELEMENT_SET_NO = 999
REV_AT_EPOCH   = 528
BSTAR          = -.51598E-3
MEAN_MOTION_DOT = -.76441E-3
MEAN_MOTION_DDOT = 0

CCSDS_OMM_VERS = 2.0
CREATION_DATE  = 
ORIGINATOR     = 

OBJECT_NAME    = STARLINK-36358
OBJECT_ID      = 2026-018K
CENTER_NAME    = EARTH
REF_FRAME      = TEME
TIME_SYSTEM    = UTC
MEAN_ELEMENT_THEORY = SGP/SGP4

EPOCH          = 2026-02-24T09:30:34.283232
MEAN_MOTION    = 15.75253194
ECCENTRICITY   = .0001055
INCLINATION    = 97.2841
RA_OF_ASC_NODE = 120.5247
ARG_OF_PERICENTER = 96.2819
MEAN_ANOMALY   = 263.8566

EPHEMERIS_TYPE = 0
CLASSIFICATION_TYPE = U
NORAD_CAT_ID   = 67598
ELEMENT_SET_NO = 999
REV_AT_EPOCH   = 521
BSTAR          = .13007E-2
MEAN_MOTION_DOT = .199012E-2
MEAN_MOTION_DDOT = 0

CCSDS_OMM_VERS = 2.0
CREATION_DATE  = 
ORIGINATOR     = 

OBJECT_NAME    = STARLINK-36582
OBJECT_ID      = 2026-018L
CENTER_NAME    = EARTH
REF_FRAME      = TEME
TIME_SYSTEM    = UTC
MEAN_ELEMENT_THEORY = SGP/SGP4

EPOCH          = 2026-02-24T03:02:17.587680
MEAN_MOTION    = 15.75247869
ECCENTRICITY   = .00012819
INCLINATION    = 97.2855
RA_OF_ASC_NODE = 120.2807
ARG_OF_PERICENTER = 94.6226
MEAN_ANOMALY   = 265.5185

EPHEMERIS_TYPE = 0
CLASSIFICATION_TYPE = U
NORAD_CAT_ID   = 67599
ELEMENT_SET_NO = 999
REV_AT_EPOCH   = 522
BSTAR          = .10126315E-2
MEAN_MOTION_DOT = .15405E-2
MEAN_MOTION_DDOT = 0

CCSDS_OMM_VERS = 2.0
CREATION_DATE  = 
ORIGINATOR     = 

OBJECT_NAME    = STARLINK-36640
OBJECT_ID      = 2026-018M
CENTER_NAME    = EARTH
REF_FRAME      = TEME
TIME_SYSTEM    = UTC
MEAN_ELEMENT_THEORY = SGP/SGP4

EPOCH          = 2026-02-24T03:30:14.637600
MEAN_MOTION    = 15.75227840
ECCENTRICITY   = .00012805
INCLINATION    = 97.2838
RA_OF_ASC_NODE = 120.2518
ARG_OF_PERICENTER = 107.0728
MEAN_ANOMALY   = 253.0677

EPHEMERIS_TYPE = 0
CLASSIFICATION_TYPE = U
NORAD_CAT_ID   = 67600
ELEMENT_SET_NO = 999
REV_AT_EPOCH   = 517
BSTAR          = .9481696E-3
MEAN_MOTION_DOT = .143939E-2
MEAN_MOTION_DDOT = 0

CCSDS_OMM_VERS = 2.0
CREATION_DATE  = 
ORIGINATOR     = 

OBJECT_NAME    = STARLINK-36635
OBJECT_ID      = 2026-018N
CENTER_NAME    = EARTH
REF_FRAME      = TEME
TIME_SYSTEM    = UTC
MEAN_ELEMENT_THEORY = SGP/SGP4

EPOCH          = 2026-02-24T12:00:01.999296
MEAN_MOTION    = 15.75208923
ECCENTRICITY   = .0001329
INCLINATION    = 97.2851
RA_OF_ASC_NODE = 120.7019
ARG_OF_PERICENTER = 103.3870
MEAN_ANOMALY   = 282.9066

EPHEMERIS_TYPE = 0
CLASSIFICATION_TYPE = U
NORAD_CAT_ID   = 67601
ELEMENT_SET_NO = 999
REV_AT_EPOCH   = 523
BSTAR          = -.3534E-3
MEAN_MOTION_DOT = -.52561E-3
MEAN_MOTION_DDOT = 0

CCSDS_OMM_VERS = 2.0
CREATION_DATE  = 
ORIGINATOR     = 

OBJECT_NAME    = STARLINK-36631
OBJECT_ID      = 2026-018P
CENTER_NAME    = EARTH
REF_FRAME      = TEME
TIME_SYSTEM    = UTC
MEAN_ELEMENT_THEORY = SGP/SGP4

EPOCH          = 2026-02-24T12:00:01.999296
MEAN_MOTION    = 15.75201186
ECCENTRICITY   = .0001387
INCLINATION    = 97.2852
RA_OF_ASC_NODE = 120.7219
ARG_OF_PERICENTER = 89.0456
MEAN_ANOMALY   = 343.2320

EPHEMERIS_TYPE = 0
CLASSIFICATION_TYPE = U
NORAD_CAT_ID   = 67602
ELEMENT_SET_NO = 999
REV_AT_EPOCH   = 522
BSTAR          = -.24345E-3
MEAN_MOTION_DOT = -.36305E-3
MEAN_MOTION_DDOT = 0

CCSDS_OMM_VERS = 2.0
CREATION_DATE  = 
ORIGINATOR     = 

OBJECT_NAME    = STARLINK-36626
OBJECT_ID      = 2026-018Q
CENTER_NAME    = EARTH
REF_FRAME      = TEME
TIME_SYSTEM    = UTC
MEAN_ELEMENT_THEORY = SGP/SGP4

EPOCH          = 2026-02-24T12:02:32.360352
MEAN_MOTION    = 15.75288122
ECCENTRICITY   = .0001512
INCLINATION    = 97.2847
RA_OF_ASC_NODE = 120.6893
ARG_OF_PERICENTER = 50.2692
MEAN_ANOMALY   = 309.8706

EPHEMERIS_TYPE = 0
CLASSIFICATION_TYPE = U
NORAD_CAT_ID   = 67603
ELEMENT_SET_NO = 999
REV_AT_EPOCH   = 523
BSTAR          = .20125E-2
MEAN_MOTION_DOT = .312618E-2
MEAN_MOTION_DDOT = 0

CCSDS_OMM_VERS = 2.0
CREATION_DATE  = 
ORIGINATOR     = 

OBJECT_NAME    = STARLINK-36605
OBJECT_ID      = 2026-018R
CENTER_NAME    = EARTH
REF_FRAME      = TEME
TIME_SYSTEM    = UTC
MEAN_ELEMENT_THEORY = SGP/SGP4

EPOCH          = 2026-02-24T03:19:03.622368
MEAN_MOTION    = 15.75264932
ECCENTRICITY   = .00018987
INCLINATION    = 97.2833
RA_OF_ASC_NODE = 120.2629
ARG_OF_PERICENTER = 101.7426
MEAN_ANOMALY   = 258.4052

EPHEMERIS_TYPE = 0
CLASSIFICATION_TYPE = U
NORAD_CAT_ID   = 67604
ELEMENT_SET_NO = 999
REV_AT_EPOCH   = 517
BSTAR          = .15615122E-2
MEAN_MOTION_DOT = .24023E-2
MEAN_MOTION_DDOT = 0

CCSDS_OMM_VERS = 2.0
CREATION_DATE  = 
ORIGINATOR     = 

OBJECT_NAME    = STARLINK-36281
OBJECT_ID      = 2026-018S
CENTER_NAME    = EARTH
REF_FRAME      = TEME
TIME_SYSTEM    = UTC
MEAN_ELEMENT_THEORY = SGP/SGP4

EPOCH          = 2026-02-24T11:29:09.587616
MEAN_MOTION    = 15.80908663
ECCENTRICITY   = .0001919
INCLINATION    = 97.2855
RA_OF_ASC_NODE = 120.7185
ARG_OF_PERICENTER = 23.2515
MEAN_ANOMALY   = 336.8839

EPHEMERIS_TYPE = 0
CLASSIFICATION_TYPE = U
NORAD_CAT_ID   = 67605
ELEMENT_SET_NO = 999
REV_AT_EPOCH   = 523
BSTAR          = .14776E-2
MEAN_MOTION_DOT = .293884E-2
MEAN_MOTION_DDOT = 0

CCSDS_OMM_VERS = 2.0
CREATION_DATE  = 
ORIGINATOR     = 

OBJECT_NAME    = STARLINK-35843
OBJECT_ID      = 2026-018T
CENTER_NAME    = EARTH
REF_FRAME      = TEME
TIME_SYSTEM    = UTC
MEAN_ELEMENT_THEORY = SGP/SGP4

EPOCH          = 2026-02-24T10:48:19.951488
MEAN_MOTION    = 15.75253304
ECCENTRICITY   = .0002333
INCLINATION    = 97.2846
RA_OF_ASC_NODE = 120.6051
ARG_OF_PERICENTER = 87.6045
MEAN_ANOMALY   = 272.5487

EPHEMERIS_TYPE = 0
CLASSIFICATION_TYPE = U
NORAD_CAT_ID   = 67606
ELEMENT_SET_NO = 999
REV_AT_EPOCH   = 522
BSTAR          = .14785E-2
MEAN_MOTION_DOT = .226989E-2
MEAN_MOTION_DDOT = 0

CCSDS_OMM_VERS = 2.0
CREATION_DATE  = 
ORIGINATOR     = 

OBJECT_NAME    = STARLINK-36351
OBJECT_ID      = 2026-018U
CENTER_NAME    = EARTH
REF_FRAME      = TEME
TIME_SYSTEM    = UTC
MEAN_ELEMENT_THEORY = SGP/SGP4

EPOCH          = 2026-02-24T11:59:59.575776
MEAN_MOTION    = 15.75229758
ECCENTRICITY   = .0001242
INCLINATION    = 97.2852
RA_OF_ASC_NODE = 120.6915
ARG_OF_PERICENTER = 93.1875
MEAN_ANOMALY   = 266.9533

EPHEMERIS_TYPE = 0
CLASSIFICATION_TYPE = U
NORAD_CAT_ID   = 67607
ELEMENT_SET_NO = 999
REV_AT_EPOCH   = 523
BSTAR          = .1149E-2
MEAN_MOTION_DOT = .175105E-2
MEAN_MOTION_DDOT = 0

